[{"OBJECT_NAME":"STARLINK-31486","OBJECT_ID":"2024-045D","EPOCH":"2026-03-09T01:35:46.888224","MEAN_MOTION":15.275756,"ECCENTRICITY":0.00019468,"INCLINATION":43.0039,"RA_OF_ASC_NODE":92.8157,"ARG_OF_PERICENTER":286.8405,"MEAN_ANOMALY":73.2233,"EPHEMERIS_TYPE":0,"CLASSIFICATION_TYPE":"U","NORAD_CAT_ID":59181,"ELEMENT_SET_NO":999,"REV_AT_EPOCH":11310,"BSTAR":3.2456743e-5,"MEAN_MOTION_DOT":6.31e-6,"MEAN_MOTION_DDOT":0},{"OBJECT_NAME":"KUIPER-00209","OBJECT_ID":"2026-030N","EPOCH":"2026-03-09T14:49:43.575744","MEAN_MOTION":15.3016195,"ECCENTRICITY":0.0012191,"INCLINATION":51.8838,"RA_OF_ASC_NODE":220.0775,"ARG_OF_PERICENTER":59.1967,"MEAN_ANOMALY":301.0215,"EPHEMERIS_TYPE":0,"CLASSIFICATION_TYPE":"U","NORAD_CAT_ID":67776,"ELEMENT_SET_NO":999,"REV_AT_EPOCH":507,"BSTAR":0.0011963,"MEAN_MOTION_DOT":0.00035298,"MEAN_MOTION_DDOT":0}]
